{"type": "FeatureCollection", "features": [ {"type": "Feature", "properties": {"norad_id": 42741, "name": "EUTELSAT 172B", "group": "eutelsat", "lat": 0.0036063160445326163, "lon": 48.46054072630801, "alt_km": 35786.992923597485, "timestamp": "2025-12-04T10:51:49.777605+00:00", "meta": {"OBJECT_NAME": "EUTELSAT 172B", "OBJECT_ID": "2017-029B", "EPOCH": "2025-12-03T17:18:38.540160", "MEAN_MOTION": 1.00271292, "ECCENTRICITY": 1.907e-05, "INCLINATION": 0.0029, "RA_OF_ASC_NODE": 53.9145, "ARG_OF_PERICENTER": 175.2679, "MEAN_ANOMALY": 275.2829, "EPHEMERIS_TYPE": 0, "CLASSIFICATION_TYPE": "U", "NORAD_CAT_ID": 42741, "ELEMENT_SET_NO": 999, "REV_AT_EPOCH": 3177, "BSTAR": 0, "MEAN_MOTION_DOT": 1.2e-07, "MEAN_MOTION_DDOT": 0}, "tle": {"line1": "1 42741U 17029B   25337.72127940  .00000012  00000+0  00000+0 0  9990", "line2": "2 42741   0.0029  53.9145 0000190 175.2679 275.2829  1.00271292 31772"}}, "geometry": {"type": "Point", "coordinates": [48.46054072630801, 0.0036063160445326163]}}, {"type": "Feature", "properties": {"norad_id": 44334, "name": "EUTELSAT 7C", "group": "eutelsat", "lat": 0.03326749339697314, "lon": -116.55105362849856, "alt_km": 35772.18187821976, "timestamp": "2025-12-04T10:51:49.777617+00:00", "meta": {"OBJECT_NAME": "EUTELSAT 7C", "OBJECT_ID": "2019-034B", "EPOCH": "2025-12-04T00:46:38.554752", "MEAN_MOTION": 1.00269518, "ECCENTRICITY": 0.0003447, "INCLINATION": 0.0762, "RA_OF_ASC_NODE": 180.0814, "ARG_OF_PERICENTER": 56.4016, "MEAN_ANOMALY": 215.2751, "EPHEMERIS_TYPE": 0, "CLASSIFICATION_TYPE": "U", "NORAD_CAT_ID": 44334, "ELEMENT_SET_NO": 999, "REV_AT_EPOCH": 487, "BSTAR": 0, "MEAN_MOTION_DOT": 6.5e-07, "MEAN_MOTION_DDOT": 0}, "tle": {"line1": "1 44334U 19034B   25338.03239068  .00000065  00000+0  00000+0 0  9996", "line2": "2 44334   0.0762 180.0814 0003447  56.4016 215.2751  1.00269518  4871"}}, "geometry": {"type": "Point", "coordinates": [-116.55105362849856, 0.03326749339697314]}}, {"type": "Feature", "properties": {"norad_id": 44624, "name": "EUTELSAT 5 WEST B", "group": "eutelsat", "lat": -0.09537241901054844, "lon": -128.53363924684444, "alt_km": 35771.230601373434, "timestamp": "2025-12-04T10:51:49.777629+00:00", "meta": {"OBJECT_NAME": "EUTELSAT 5 WEST B", "OBJECT_ID": "2019-067A", "EPOCH": "2025-12-03T23:44:38.650272", "MEAN_MOTION": 1.00272817, "ECCENTRICITY": 0.000373, "INCLINATION": 0.07, "RA_OF_ASC_NODE": 329.4641, "ARG_OF_PERICENTER": 284.9373, "MEAN_ANOMALY": 169.8486, "EPHEMERIS_TYPE": 0, "CLASSIFICATION_TYPE": "U", "NORAD_CAT_ID": 44624, "ELEMENT_SET_NO": 999, "REV_AT_EPOCH": 2248, "BSTAR": 0, "MEAN_MOTION_DOT": -2.5e-07, "MEAN_MOTION_DDOT": 0}, "tle": {"line1": "1 44624U 19067A   25337.98933623 -.00000025  00000+0  00000+0 0  9992", "line2": "2 44624   0.0700 329.4641 0003730 284.9373 169.8486  1.00272817 22483"}}, "geometry": {"type": "Point", "coordinates": [-128.53363924684444, -0.09537241901054844]}}, {"type": "Feature", "properties": {"norad_id": 45027, "name": "EUTELSAT KONNECT", "group": "eutelsat", "lat": 0.0049090409864287945, "lon": -116.37126742532516, "alt_km": 35781.18930884211, "timestamp": "2025-12-04T10:51:49.777640+00:00", "meta": {"OBJECT_NAME": "EUTELSAT KONNECT", "OBJECT_ID": "2020-005B", "EPOCH": "2025-12-04T00:03:48.877056", "MEAN_MOTION": 1.00268785, "ECCENTRICITY": 0.0001812, "INCLINATION": 0.0699, "RA_OF_ASC_NODE": 99.0395, "ARG_OF_PERICENTER": 186.7102, "MEAN_ANOMALY": 155.4717, "EPHEMERIS_TYPE": 0, "CLASSIFICATION_TYPE": "U", "NORAD_CAT_ID": 45027, "ELEMENT_SET_NO": 999, "REV_AT_EPOCH": 2236, "BSTAR": 0, "MEAN_MOTION_DOT": 6.6e-07, "MEAN_MOTION_DDOT": 0}, "tle": {"line1": "1 45027U 20005B   25338.00264904  .00000066  00000+0  00000+0 0  9991", "line2": "2 45027   0.0699  99.0395 0001812 186.7102 155.4717  1.00268785 22366"}}, "geometry": {"type": "Point", "coordinates": [-116.37126742532516, 0.0049090409864287945]}}, {"type": "Feature", "properties": {"norad_id": 49056, "name": "EUTELSAT QUANTUM", "group": "eutelsat", "lat": -0.032081343339331006, "lon": -75.81243520308425, "alt_km": 35770.6305820979, "timestamp": "2025-12-04T10:51:49.777652+00:00", "meta": {"OBJECT_NAME": "EUTELSAT QUANTUM", "OBJECT_ID": "2021-069B", "EPOCH": "2025-12-04T00:15:17.777952", "MEAN_MOTION": 1.00271978, "ECCENTRICITY": 0.0003805, "INCLINATION": 0.0193, "RA_OF_ASC_NODE": 20.2063, "ARG_OF_PERICENTER": 246.4084, "MEAN_ANOMALY": 218.0115, "EPHEMERIS_TYPE": 0, "CLASSIFICATION_TYPE": "U", "NORAD_CAT_ID": 49056, "ELEMENT_SET_NO": 999, "REV_AT_EPOCH": 1597, "BSTAR": 0, "MEAN_MOTION_DOT": 1.42e-06, "MEAN_MOTION_DDOT": 0}, "tle": {"line1": "1 49056U 21069B   25338.01062243  .00000142  00000+0  00000+0 0  9996", "line2": "2 49056   0.0193  20.2063 0003805 246.4084 218.0115  1.00271978 15971"}}, "geometry": {"type": "Point", "coordinates": [-75.81243520308425, -0.032081343339331006]}}, {"type": "Feature", "properties": {"norad_id": 53765, "name": "EUTELSAT KONNECT VHTS", "group": "eutelsat", "lat": 0.006728671353354658, "lon": -120.8521104096193, "alt_km": 35775.21806935428, "timestamp": "2025-12-04T10:51:49.777664+00:00", "meta": {"OBJECT_NAME": "EUTELSAT KONNECT VHTS", "OBJECT_ID": "2022-110A", "EPOCH": "2025-12-03T05:12:28.480320", "MEAN_MOTION": 1.00269007, "ECCENTRICITY": 0.0002764, "INCLINATION": 0.0603, "RA_OF_ASC_NODE": 107.1016, "ARG_OF_PERICENTER": 123.1613, "MEAN_ANOMALY": 282.8564, "EPHEMERIS_TYPE": 0, "CLASSIFICATION_TYPE": "U", "NORAD_CAT_ID": 53765, "ELEMENT_SET_NO": 999, "REV_AT_EPOCH": 486, "BSTAR": 0, "MEAN_MOTION_DOT": 3.6e-07, "MEAN_MOTION_DDOT": 0}, "tle": {"line1": "1 53765U 22110A   25337.21699630  .00000036  00000+0  00000+0 0  9995", "line2": "2 53765   0.0603 107.1016 0002764 123.1613 282.8564  1.00269007  4867"}}, "geometry": {"type": "Point", "coordinates": [-120.8521104096193, 0.006728671353354658]}}, {"type": "Feature", "properties": {"norad_id": 54048, "name": "EUTELSAT HOTBIRD 13F", "group": "eutelsat", "lat": -0.05675203744649695, "lon": -110.56173623388432, "alt_km": 35788.63878790204, "timestamp": "2025-12-04T10:51:49.777675+00:00", "meta": {"OBJECT_NAME": "EUTELSAT HOTBIRD 13F", "OBJECT_ID": "2022-134A", "EPOCH": "2025-12-04T01:48:08.882784", "MEAN_MOTION": 1.00270626, "ECCENTRICITY": 0.0002113, "INCLINATION": 0.0523, "RA_OF_ASC_NODE": 291.1034, "ARG_OF_PERICENTER": 62.9296, "MEAN_ANOMALY": 119.1592, "EPHEMERIS_TYPE": 0, "CLASSIFICATION_TYPE": "U", "NORAD_CAT_ID": 54048, "ELEMENT_SET_NO": 999, "REV_AT_EPOCH": 1142, "BSTAR": 0, "MEAN_MOTION_DOT": 1.03e-06, "MEAN_MOTION_DDOT": 0}, "tle": {"line1": "1 54048U 22134A   25338.07510281  .00000103  00000+0  00000+0 0  9990", "line2": "2 54048   0.0523 291.1034 0002113  62.9296 119.1592  1.00270626 11424"}}, "geometry": {"type": "Point", "coordinates": [-110.56173623388432, -0.05675203744649695]}}, {"type": "Feature", "properties": {"norad_id": 54225, "name": "EUTELSAT HOTBIRD 13G", "group": "eutelsat", "lat": -0.01346263200452046, "lon": -110.51743052567842, "alt_km": 35782.20889789472, "timestamp": "2025-12-04T10:51:49.777687+00:00", "meta": {"OBJECT_NAME": "EUTELSAT HOTBIRD 13G", "OBJECT_ID": "2022-146A", "EPOCH": "2025-12-04T01:48:08.882784", "MEAN_MOTION": 1.00271083, "ECCENTRICITY": 0.0002144, "INCLINATION": 0.0481, "RA_OF_ASC_NODE": 238.3515, "ARG_OF_PERICENTER": 307.4733, "MEAN_ANOMALY": 287.3658, "EPHEMERIS_TYPE": 0, "CLASSIFICATION_TYPE": "U", "NORAD_CAT_ID": 54225, "ELEMENT_SET_NO": 999, "REV_AT_EPOCH": 551, "BSTAR": 0, "MEAN_MOTION_DOT": 1.04e-06, "MEAN_MOTION_DDOT": 0}, "tle": {"line1": "1 54225U 22146A   25338.07510281  .00000104  00000+0  00000+0 0  9991", "line2": "2 54225   0.0481 238.3515 0002144 307.4733 287.3658  1.00271083  5510"}}, "geometry": {"type": "Point", "coordinates": [-110.51743052567842, -0.01346263200452046]}}, {"type": "Feature", "properties": {"norad_id": 54259, "name": "EUTELSAT 10B", "group": "eutelsat", "lat": -0.00017936071722997579, "lon": -113.52440397341596, "alt_km": 35785.4140641318, "timestamp": "2025-12-04T10:51:49.777699+00:00", "meta": {"OBJECT_NAME": "EUTELSAT 10B", "OBJECT_ID": "2022-157A", "EPOCH": "2025-12-03T04:33:38.732832", "MEAN_MOTION": 1.00268425, "ECCENTRICITY": 0.0001038, "INCLINATION": 0.0608, "RA_OF_ASC_NODE": 103.578, "ARG_OF_PERICENTER": 72.8343, "MEAN_ANOMALY": 334.2971, "EPHEMERIS_TYPE": 0, "CLASSIFICATION_TYPE": "U", "NORAD_CAT_ID": 54259, "ELEMENT_SET_NO": 999, "REV_AT_EPOCH": 1106, "BSTAR": 0, "MEAN_MOTION_DOT": 8.7e-07, "MEAN_MOTION_DDOT": 0}, "tle": {"line1": "1 54259U 22157A   25337.19003163  .00000087  00000+0  00000+0 0  9998", "line2": "2 54259   0.0608 103.5780 0001038  72.8343 334.2971  1.00268425 11069"}}, "geometry": {"type": "Point", "coordinates": [-113.52440397341596, -0.00017936071722997579]}}, {"type": "Feature", "properties": {"norad_id": 59346, "name": "EUTELSAT 36D", "group": "eutelsat", "lat": -0.04212129145498226, "lon": -87.69275943579822, "alt_km": 35783.847059412445, "timestamp": "2025-12-04T10:51:49.777710+00:00", "meta": {"OBJECT_NAME": "EUTELSAT 36D", "OBJECT_ID": "2024-059A", "EPOCH": "2025-12-03T13:55:38.715744", "MEAN_MOTION": 1.00270882, "ECCENTRICITY": 6.596e-05, "INCLINATION": 0.0224, "RA_OF_ASC_NODE": 345.8589, "ARG_OF_PERICENTER": 317.7492, "MEAN_ANOMALY": 13.8207, "EPHEMERIS_TYPE": 0, "CLASSIFICATION_TYPE": "U", "NORAD_CAT_ID": 59346, "ELEMENT_SET_NO": 999, "REV_AT_EPOCH": 618, "BSTAR": 0, "MEAN_MOTION_DOT": 0, "MEAN_MOTION_DDOT": 0}, "tle": {"line1": "1 59346U 24059A   25337.58030921  .00000000  00000+0  00000+0 0  9993", "line2": "2 59346   0.0224 345.8589 0000659 317.7492  13.8207  1.00270882  6186"}}, "geometry": {"type": "Point", "coordinates": [-87.69275943579822, -0.04212129145498226]}}]}